ONEWEB-0228             
1 48780U 21045P   24227.50800640  .00000090  00000+0  20502-3 0  9999
2 48780  87.9031  32.8363 0001690  91.4236 268.7088 13.15545635156013
